MEAN_MOTION;ECCENTRICITY;INCLINATION;RA_OF_ASC_NODE;ARG_OF_PERICENTER;MEAN_ANOMALY;BSTAR;MEAN_MOTION_DOT;MEAN_MOTION_DDOT;TYPE
2.00565629;0.0083664;55.8514;75.4426;37.8638;167.9004;0;1.8E-7;0;Navigation
2.00565629;0.0083664;55.8514;75.4426;37.8638;167.9004;0;1.8E-7;0;Navigation
2.00565622;0.0083709;55.8521;75.4043;37.869;144.4735;0;1.8E-7;0;Navigation
2.0056562;0.0083735;55.8525;75.3846;37.873;144.0319;0;1.7E-7;0;Navigation
2.00565621;0.0083755;55.8528;75.367;37.8762;102.8395;0;1.6E-7;0;Navigation
2.00565621;0.0083781;55.8532;75.3461;37.8811;124.755;0;1.3E-7;0;Navigation
2.00565623;0.0083806;55.8536;75.3254;37.8856;140.5184;0;1.0E-7;0;Navigation
2.0056563;0.0083838;55.8542;75.2955;37.8943;323.8045;0;4.0E-8;0;Navigation
2.00565633;0.0083853;55.8544;75.286;37.8952;137.6739;0;1.0E-8;0;Navigation
2.00565633;0.0083853;55.8544;75.286;37.8952;137.6739;0;1.0E-8;0;Navigation
2.00565649;0.0083892;55.8552;75.2444;37.9093;174.6038;0;-9.0E-8;0;Navigation
2.00565649;0.0083892;55.8552;75.2444;37.9093;174.6038;0;-9.0E-8;0;Navigation
2.00565671;0.0083932;55.856;75.2043;37.9208;183.8931;0;-1.9E-7;0;Navigation
2.00565671;0.0083932;55.856;75.2043;37.9208;183.8931;0;-1.9E-7;0;Navigation
2.00565696;0.0083972;55.8567;75.1675;37.9292;133.476;0;-2.6E-7;0;Navigation
2.00565734;0.0084025;55.8577;75.1175;37.9385;323.4793;0;-3.1E-7;0;Navigation
2.00565741;0.0084038;55.8578;75.1097;37.9403;104.73;0;-3.1E-7;0;Navigation
2.00565754;0.0084055;55.8581;75.0934;37.9448;41.6309;0;-3.2E-7;0;Navigation
2.00565788;0.00841;55.8589;75.0546;37.9555;28.6936;0;-3.0E-7;0;Navigation
2.00565793;0.0084107;55.859;75.0486;37.9587;138.4358;0;-2.9E-7;0;Navigation
2.00565812;0.008413;55.8594;75.0273;37.9653;166.8766;0;-2.7E-7;0;Navigation
2.00565827;0.0084155;55.8597;75.0106;37.9696;111.3629;0;-2.5E-7;0;Navigation
2.0056586;0.0084207;55.8604;74.9723;37.9843;88.7984;0;-1.9E-7;0;Navigation
2.00565863;0.0084208;55.8605;74.9685;37.9863;158.1323;0;-1.8E-7;0;Navigation
2.00565888;0.0084252;55.8611;74.9346;37.9976;56.3465;0;-1.3E-7;0;Navigation
2.00565892;0.0084258;55.8613;74.9286;38.0004;166.7496;0;-1.3E-7;0;Navigation
2.00565903;0.0084282;55.8616;74.9117;38.0069;113.8246;0;-1.0E-7;0;Navigation
2.00565915;0.0084308;55.862;74.8907;38.0148;136.3958;0;-8.0E-8;0;Navigation
2.0056593;0.0084356;55.8626;74.8557;38.0271;54.927;0;-5.0E-8;0;Navigation
2.00565932;0.0084359;55.8627;74.8506;38.029;148.1323;0;-5.0E-8;0;Navigation
2.00565932;0.0084359;55.8627;74.8506;38.029;148.1323;0;-5.0E-8;0;Navigation
2.00565945;0.008444;55.8639;74.787;38.048;227.0342;0;-4.0E-8;0;Navigation
2.00565947;0.0084472;55.8643;74.7621;38.0554;322.6504;0;-4.0E-8;0;Navigation
2.00565947;0.008451;55.8649;74.7326;38.0642;139.6208;0;-5.0E-8;0;Navigation
2.00565947;0.008451;55.8649;74.7326;38.0642;139.6208;0;-5.0E-8;0;Navigation
2.00565947;0.008451;55.8649;74.7326;38.0642;139.6208;0;-5.0E-8;0;Navigation
2.00565947;0.008451;55.8649;74.7326;38.0642;139.6208;0;-5.0E-8;0;Navigation
2.00565947;0.008451;55.8649;74.7326;38.0642;139.6208;0;-5.0E-8;0;Navigation
2.005659;0.0084721;55.8676;74.5846;38.1211;322.3119;0;-5.0E-8;0;Navigation
2.005659;0.0084721;55.8676;74.5846;38.1211;322.3119;0;-5.0E-8;0;Navigation
2.005659;0.0084721;55.8676;74.5846;38.1211;322.3119;0;-5.0E-8;0;Navigation
2.005659;0.0084721;55.8676;74.5846;38.1211;322.3119;0;-5.0E-8;0;Navigation
2.00565837;0.0084885;55.8699;74.4561;38.1754;147.0319;0;5.0E-8;0;Navigation
2.00565837;0.0084885;55.8699;74.4561;38.1754;147.0319;0;5.0E-8;0;Navigation
2.00565825;0.0084931;55.8704;74.4266;38.189;325.3055;0;8.0E-8;0;Navigation
2.00565825;0.0084931;55.8704;74.4266;38.189;325.3055;0;8.0E-8;0;Navigation
2.00565803;0.0085011;55.8716;74.3575;38.2155;144.1135;0;1.1E-7;0;Navigation
2.00565793;0.0085074;55.8725;74.3082;38.2406;323.6507;0;1.0E-7;0;Navigation
2.00565793;0.0085074;55.8725;74.3082;38.2406;323.6507;0;1.0E-7;0;Navigation
2.00565798;0.0085185;55.8741;74.2196;38.2827;138.71;0;-5.0E-8;0;Navigation
2.00565798;0.0085185;55.8741;74.2196;38.2827;138.71;0;-5.0E-8;0;Navigation
2.00565798;0.0085188;55.8742;74.2147;38.2864;227.3222;0;-6.0E-8;0;Navigation
2.00565798;0.0085188;55.8742;74.2147;38.2864;227.3222;0;-6.0E-8;0;Navigation
2.00565814;0.0085231;55.875;74.1701;38.3099;319.8729;0;-1.8E-7;0;Navigation
2.00565827;0.008527;55.8755;74.1404;38.327;142.46;0;-2.6E-7;0;Navigation
2.0056584;0.0085295;55.876;74.1157;38.3402;231.9773;0;-3.2E-7;0;Navigation
2.00565877;0.0085362;55.8769;74.0617;38.3704;136.0195;0;-4.2E-7;0;Navigation
2.00565884;0.0085367;55.8771;74.0515;38.3728;321.1241;0;-4.3E-7;0;Navigation
2.00565908;0.0085408;55.8776;74.0219;38.3911;141.5019;0;-4.5E-7;0;Navigation
2.00565944;0.0085457;55.8784;73.9792;38.4143;199.9856;0;-4.5E-7;0;Navigation
2.00565978;0.0085507;55.8791;73.9392;38.437;209.1572;0;-4.2E-7;0;Navigation
2.00566011;0.0085555;55.8798;73.9015;38.4614;178.0238;0;-3.7E-7;0;Navigation
2.00566011;0.0085555;55.8798;73.9015;38.4614;178.0238;0;-3.7E-7;0;Navigation
2.00566012;0.0085555;55.8798;73.899;38.461;222.121;0;-3.7E-7;0;Navigation
2.00566032;0.0085583;55.8803;73.8739;38.4729;320.6856;0;-3.4E-7;0;Navigation
2.00566041;0.0085594;55.8804;73.8638;38.4813;145.2414;0;-3.3E-7;0;Navigation
2.00566041;0.0085594;55.8804;73.8638;38.4813;145.2414;0;-3.3E-7;0;Navigation
2.00566041;0.0085594;55.8804;73.8638;38.4813;145.2414;0;-3.3E-7;0;Navigation
2.00566041;0.0085594;55.8804;73.8638;38.4813;145.2414;0;-3.3E-7;0;Navigation
2.00566041;0.0085594;55.8804;73.8638;38.4813;145.2414;0;-3.3E-7;0;Navigation
2.00566113;0.0085795;55.8833;73.6963;38.5804;320.2951;0;-2.6E-7;0;Navigation
2.00566117;0.0085846;55.8838;73.6638;38.6048;193.1879;0;-2.7E-7;0;Navigation
2.00566117;0.0085846;55.8838;73.6638;38.6048;193.1879;0;-2.7E-7;0;Navigation
2.00566113;0.0085901;55.8845;73.6211;38.6278;253.2953;0;-2.9E-7;0;Navigation
2.00566112;0.0085925;55.8848;73.605;38.6397;185.6328;0;-2.9E-7;0;Navigation
2.00566112;0.0085925;55.8848;73.605;38.6397;185.6328;0;-2.9E-7;0;Navigation
2.00566085;0.0086055;55.8863;73.5132;38.7036;61.6576;0;-2.9E-7;0;Navigation
2.00566085;0.0086055;55.8863;73.5132;38.7036;61.6576;0;-2.9E-7;0;Navigation
2.00566069;0.0086096;55.8869;73.479;38.7246;325.4768;0;-2.8E-7;0;Navigation
2.00566069;0.0086096;55.8869;73.479;38.7246;325.4768;0;-2.8E-7;0;Navigation
2.00566069;0.0086096;55.8869;73.479;38.7246;325.4768;0;-2.8E-7;0;Navigation
2.00566069;0.0086096;55.8869;73.479;38.7246;325.4768;0;-2.8E-7;0;Navigation
2.00566069;0.0086096;55.8869;73.479;38.7246;325.4768;0;-2.8E-7;0;Navigation
2.00566024;0.0086206;55.8884;73.3863;38.7858;218.4694;0;-2.0E-7;0;Navigation
2.00566015;0.008623;55.8887;73.3649;38.7994;247.9552;0;-1.9E-7;0;Navigation
2.00566006;0.0086256;55.8891;73.3413;38.8137;319.3041;0;-1.7E-7;0;Navigation
2.00565992;0.0086299;55.8898;73.3046;38.8295;268.108;0;-1.4E-7;0;Navigation
2.00565987;0.008632;55.89;73.2871;38.8404;225.8644;0;-1.4E-7;0;Navigation
2.00565982;0.008634;55.8904;73.2659;38.8543;252.9488;0;-1.4E-7;0;Navigation
2.00565979;0.0086355;55.8906;73.2524;38.8615;139.1587;0;-1.4E-7;0;Navigation
2.00565974;0.0086404;55.8913;73.2098;38.8926;196.3825;0;-1.7E-7;0;Navigation
2.00565974;0.0086427;55.8916;73.1884;38.9092;227.0439;0;-2.1E-7;0;Navigation
2.00565978;0.0086472;55.8922;73.1541;38.9348;132.2241;0;-2.7E-7;0;Navigation
2.00565988;0.0086518;55.8929;73.1108;38.9682;200.6664;0;-3.8E-7;0;Navigation
2.00565988;0.0086518;55.8929;73.1108;38.9682;200.6664;0;-3.8E-7;0;Navigation
2.00565989;0.0086518;55.8929;73.108;38.9706;251.2904;0;-3.9E-7;0;Navigation
2.00565996;0.0086539;55.8932;73.0894;38.9848;231.8202;0;-4.4E-7;0;Navigation
2.00566005;0.0086562;55.8936;73.0679;39.0015;262.6812;0;-4.9E-7;0;Navigation
2.00566025;0.0086598;55.8941;73.0352;39.0232;138.0788;0;-5.8E-7;0;Navigation
2.00566025;0.0086598;55.8941;73.0352;39.0232;138.0788;0;-5.8E-7;0;Navigation
2.00566055;0.0086644;55.8949;72.9858;39.0576;318.4374;0;-6.7E-7;0;Navigation
2.00566055;0.0086644;55.8949;72.9858;39.0576;318.4374;0;-6.7E-7;0;Navigation
2.00566085;0.0086685;55.8956;72.946;39.0855;324.1527;0;-7.1E-7;0;Navigation
2.00566098;0.0086701;55.8958;72.9315;39.0972;228.7419;0;-7.2E-7;0;Navigation
2.00566116;0.0086728;55.8962;72.9101;39.1158;258.6859;0;-7.2E-7;0;Navigation
2.00566129;0.0086744;55.8964;72.897;39.1259;138.2834;0;-7.1E-7;0;Navigation
2.00566164;0.0086788;55.8971;72.8572;39.1569;143.9554;0;-6.8E-7;0;Navigation
2.00566215;0.0086853;55.898;72.798;39.202;143.0443;0;-6.1E-7;0;Navigation
2.00566246;0.0086896;55.8987;72.7589;39.2365;136.7654;0;-5.7E-7;0;Navigation
2.00566271;0.0086938;55.8993;72.7194;39.2719;137.6847;0;-5.4E-7;0;Navigation
2.00566273;0.0086944;55.8994;72.7121;39.2735;270.246;0;-5.4E-7;0;Navigation
2.00566286;0.0086973;55.8998;72.6873;39.294;3.3513;0;-5.3E-7;0;Navigation
2.00566305;0.0087019;55.9006;72.6405;39.3376;136.5518;0;-5.3E-7;0;Navigation
2.00566313;0.0087065;55.9012;72.6004;39.3699;148.8963;0;-5.4E-7;0;Navigation
2.00566315;0.0087108;55.9018;72.5637;39.4002;98.0828;0;-5.5E-7;0;Navigation
2.00566314;0.008712;55.902;72.5513;39.4122;324.666;0;-5.6E-7;0;Navigation
2.00566312;0.0087153;55.9024;72.5219;39.4364;140.7119;0;-5.6E-7;0;Navigation
2.00566309;0.0087176;55.9028;72.502;39.4524;143.0395;0;-5.7E-7;0;Navigation
2.00566293;0.0087244;55.9037;72.4427;39.5024;144.832;0;-5.6E-7;0;Navigation
2.00566281;0.0087286;55.9044;72.4034;39.535;141.8698;0;-5.4E-7;0;Navigation
2.00566265;0.0087327;55.905;72.3642;39.5678;136.8007;0;-5.0E-7;0;Navigation
2.00566256;0.0087348;55.9053;72.3445;39.5849;135.5409;0;-4.9E-7;0;Navigation
2.00566247;0.0087368;55.9056;72.3241;39.6005;146.996;0;-4.7E-7;0;Navigation
2.00566231;0.0087407;55.9063;72.2846;39.6321;147.7978;0;-4.3E-7;0;Navigation
2.00566231;0.0087407;55.9063;72.2846;39.6321;147.7978;0;-4.3E-7;0;Navigation
2.00566231;0.0087407;55.9063;72.2846;39.6321;147.7978;0;-4.3E-7;0;Navigation
2.00566199;0.0087504;55.9079;72.1865;39.7124;136.2917;0;-3.6E-7;0;Navigation
2.00566196;0.0087525;55.9082;72.1661;39.729;147.3459;0;-3.7E-7;0;Navigation
2.00566193;0.0087556;55.9087;72.131;39.7563;66.8521;0;-3.9E-7;0;Navigation
